{
  "type": "FeatureCollection",
  "features": [
    {
      "type": "Feature",
      "properties": {},
      "geometry": {
        "type": "Polygon",
        "coordinates": [
          [
            [-71.1009587, 45.1817636],
            [-70.8084919, 45.1995156],
            [-69.2634245, 47.2860871],
            [-67.9849117, 46.9853981],
            [-67.8232406, 46.0216338],
            [-66.9490195, 44.911347],
            [-70.3386779, 43.4359376],
            [-70.5582574, 42.2915104],
            [-69.6959433, 41.9443938],
            [-69.9399591, 40.900121],
            [-73.6107766, 40.2018619],
            [-75.841409, 36.5351634],
            [-80.8287644, 39.3588571],
            [-80.903119, 41.688075],
            [-76.9885276, 43.3278681],
            [-75.5868252, 44.4841779],
            [-71.5049603, 44.8402439],
            [-71.1009587, 45.1817636]
          ]
        ]
      }
    }
  ]
}
